var tles = [ {
  "GLONASS128": [
    "1 37867C 11064A   20056.99979167 -.00000000  00000-0  00000-0 0   568",
    "2 37867  64.5167 150.9669 0019752 238.9175 240.9885  2.13101908    19"
  ],
  "GLONASS128": [
    "1 37867C 11064A   20056.00000000 -.00000000  00000-0  00000-0 0   561",
    "2 37867  64.5167 151.0006 0019688 238.6240 194.2751  2.13101964    19"
  ],
  "GLONASS129": [
    "1 37868C 11064B   20056.99979167 -.00000000  00000-0  00000-0 0   569",
    "2 37868  64.5249 151.0221 0017319 240.1461  58.3208  2.13101815    14"
  ],
  "GLONASS129": [
    "1 37868C 11064B   20056.00000000 -.00000000  00000-0  00000-0 0   562",
    "2 37868  64.5248 151.0558 0017243 239.9950  11.4661  2.13101834    15"
  ],
  "GLONASS127": [
    "1 37869C 11064C   20056.99979167 -.00000000  00000-0  00000-0 0   560",
    "2 37869  64.5323 151.0225 0021332 262.0648 353.7012  2.13101922    16"
  ],
  "GLONASS127": [
    "1 37869C 11064C   20056.00000000 -.00000000  00000-0  00000-0 0   563",
    "2 37869  64.5322 151.0562 0021253 261.9689 306.7912  2.13101901    18"
  ],
}, {
  "COMPASSI5": [
    "1 37948C 11073A   20056.00000000 -.00000109  00000-0  00000-0 0   561",
    "2 37948  51.7566 299.2575 0062739 211.9822  98.7585  1.00281209    10"
  ],
}, {
  "LARES": [
    "1 38077C 12006A   20055.98611111 -.00000005  00000-0 -29141-4 0   555",
    "2 38077  69.4887 268.0177 0007060  44.8319 168.5204 12.54931088    10"
  ],
  "LARES": [
    "1 38077C 12006A   20056.00000000 -.00000020  00000-0 -12141-3 0   567",
    "2 38077  69.4887 267.9936 0007076  44.7102 231.3755 12.54931168    16"
  ],
}, {
  "COMPASSM3": [
    "1 38250C 12018A   20056.00000000 -.00000000  00000-0  00000-0 0   568",
    "2 38250  56.7096  21.4240 0023151 246.9969  25.0735  1.86233061    16"
  ],
}, {
  "GALILEO103": [
    "1 38857C 12055A   20055.99979167 -.00000000  00000-0  00000-0 0   557",
    "2 38857  54.9614 164.9049 0002894 253.1600 239.5057  1.70473866    19"
  ],
  "GALILEO103": [
    "1 38857C 12055A   20054.99979167 -.00000000  00000-0  00000-0 0   545",
    "2 38857  54.9613 164.9323 0002857 252.9479 345.9938  1.70473911    14"
  ],
  "GALILEO103": [
    "1 38857C 12055A   20057.01020833 -.00000000  00000-0  00000-0 0   571",
    "2 38857  54.9615 164.8772 0002950 253.6421 139.1403  1.70473833    15"
  ],
  "GALILEO104": [
    "1 38858C 12055B   20054.99979167 -.00000000  00000-0  00000-0 0   546",
    "2 38858  54.9619 164.9316 0001634 255.8966  23.3638  1.70473825    16"
  ],
  "GALILEO104": [
    "1 38858C 12055B   20057.01020833 -.00000000  00000-0  00000-0 0   572",
    "2 38858  54.9621 164.8765 0001727 256.9681 176.1325  1.70473752    14"
  ],
}, {
  "GLONASS131": [
    "1 39155C 13019A   20056.99979167 -.00000000  00000-0  00000-0 0   562",
    "2 39155  64.6848 151.2115 0020228 234.3720 290.1543  2.13101858    16"
  ],
  "GLONASS131": [
    "1 39155C 13019A   20056.00000000 -.00000000  00000-0  00000-0 0   565",
    "2 39155  64.6847 151.2450 0020184 234.0793 243.4412  2.13101869    13"
  ],
}, {
  "IRNSS1A": [
    "1 39199C 13034A   20055.99979167  .00000153  00000-0  00000-0 0   553",
    "2 39199  30.6246  98.5957 0019396 192.4272 278.3790  1.00270151    16"
  ],
}, {
  "KOMPSAT5": [
    "1 39227C 13042A   20057.00000000  .00000132  00000-0  94133-5 0   573",
    "2 39227  97.6213 242.6688 0002099  88.5569  33.6870 15.04517004    15"
  ],
}, {
  "GLONASS132": [
    "1 39620C 14012A   20056.99979167 -.00000000  00000-0  00000-0 0   563",
    "2 39620  65.7240  31.3814 0016044 322.2955 237.3360  2.13103477    12"
  ],
  "GLONASS132": [
    "1 39620C 14012A   20056.00000000 -.00000000  00000-0  00000-0 0   566",
    "2 39620  65.7236  31.4147 0016056 322.2212 190.4040  2.13103500    17"
  ],
}, {
  "IRNSS1B": [
    "1 39635C 14017A   20055.99979167  .00000156  00000-0  00000-0 0   553",
    "2 39635  28.8041 279.0619 0019021 178.7075 111.5019  1.00271968    16"
  ],
}, {
  "GLONASS133": [
    "1 40001C 14032A   20056.99979167 -.00000000  00000-0  00000-0 0   560",
    "2 40001  65.6647  31.3051 0006435 229.9891 190.4368  2.13102785    13"
  ],
  "GLONASS133": [
    "1 40001C 14032A   20056.00000000 -.00000000  00000-0  00000-0 0   563",
    "2 40001  65.6644  31.3386 0006496 229.6938 143.7282  2.13102806    17"
  ],
}, {
  "GALILEO201": [
    "1 40128C 14050A   20056.99979167  .00000000  00000-0  00000-0 0   569",
    "2 40128  50.5804   5.8592 1663024  95.6523  91.3286  1.85519114    15"
  ],
  "GALILEO201": [
    "1 40128C 14050A   20054.99979167  .00000000  00000-0  00000-0 0   545",
    "2 40128  50.5805   5.9386 1663018  95.5920 195.5963  1.85518977    16"
  ],
  "GALILEO201": [
    "1 40128C 14050A   20057.01020833  .00000000  00000-0  00000-0 0   571",
    "2 40128  50.5804   5.8588 1663024  95.6526  98.2855  1.85519112    19"
  ],
  "GALILEO202": [
    "1 40129C 14050B   20056.99979167  .00000000  00000-0  00000-0 0   560",
    "2 40129  50.6196   4.8918 1661355  96.4832 274.0431  1.85519692    12"
  ],
  "GALILEO202": [
    "1 40129C 14050B   20054.99979167  .00000000  00000-0  00000-0 0   546",
    "2 40129  50.6197   4.9709 1661354  96.4228  18.3027  1.85519920    14"
  ],
  "GALILEO202": [
    "1 40129C 14050B   20057.01020833  .00000000  00000-0  00000-0 0   572",
    "2 40129  50.6196   4.8914 1661355  96.4835 281.0001  1.85519697    17"
  ],
}, {
  "IRNSS1C": [
    "1 40269C 14061A   20055.99979167 -.00000075  00000-0  00000-0 0   558",
    "2 40269   1.8639 186.3476 0017908  13.8690  37.0451  1.00271366    14"
  ],
}, {
  "GLONASS134": [
    "1 40315C 14075A   20056.99979167  .00000000  00000-0  00000-0 0   564",
    "2 40315  63.9346 270.7611 0014825 204.5062  11.7973  2.13098716    15"
  ],
  "GLONASS134": [
    "1 40315C 14075A   20056.00000000  .00000000  00000-0  00000-0 0   567",
    "2 40315  63.9349 270.7962 0014792 204.4997 324.8077  2.13098762    10"
  ],
}, {
  "GALILEO203": [
    "1 40544C 15017A   20056.99979167 -.00000000  00000-0  00000-0 0   566",
    "2 40544  56.3502  44.5249 0005356 272.1592 274.9290  1.70475141    19"
  ],
  "GALILEO203": [
    "1 40544C 15017A   20054.99979167 -.00000000  00000-0  00000-0 0   542",
    "2 40544  56.3489  44.5799 0005367 271.5541 128.0895  1.70475205    13"
  ],
  "GALILEO203": [
    "1 40544C 15017A   20057.01020833 -.00000000  00000-0  00000-0 0   578",
    "2 40544  56.3502  44.5247 0005356 272.1618 281.3193  1.70475142    11"
  ],
  "GALILEO204": [
    "1 40545C 15017B   20054.99979167 -.00000000  00000-0  00000-0 0   543",
    "2 40545  56.3554  44.5952 0002926 261.6134 272.1285  1.70475526    14"
  ],
  "GALILEO204": [
    "1 40545C 15017B   20057.01020833 -.00000000  00000-0  00000-0 0   579",
    "2 40545  56.3567  44.5400 0002908 262.5293  65.0523  1.70475503    11"
  ],
}, {
  "IRNSS1D": [
    "1 40547C 15018A   20055.99979167 -.00000227  00000-0  00000-0 0   559",
    "2 40547  28.7048 279.1471 0018688 177.9466 168.8444  1.00267365    19"
  ],
}, {
  "GALILEO205": [
    "1 40889C 15045A   20056.99979167  .00000000  00000-0  00000-0 0   568",
    "2 40889  56.2408 285.1947 0005262  23.6682 148.1365  1.70475124    14"
  ],
  "GALILEO205": [
    "1 40889C 15045A   20054.99979167  .00000000  00000-0  00000-0 0   544",
    "2 40889  56.2423 285.2495 0005343  22.7498   1.6071  1.70475090    14"
  ],
  "GALILEO205": [
    "1 40889C 15045A   20057.01020833  .00000000  00000-0  00000-0 0   570",
    "2 40889  56.2408 285.1944 0005262  23.6742 154.5235  1.70475124    15"
  ],
  "GALILEO206": [
    "1 40890C 15045B   20056.99979167  .00000000  00000-0  00000-0 0   560",
    "2 40890  56.2399 285.1913 0003504  22.7886  14.2315  1.70475153    11"
  ],
  "GALILEO206": [
    "1 40890C 15045B   20054.99979167  .00000000  00000-0  00000-0 0   546",
    "2 40890  56.2413 285.2460 0003579  21.5212 228.0505  1.70475140    10"
  ],
  "GALILEO206": [
    "1 40890C 15045B   20057.01020833  .00000000  00000-0  00000-0 0   572",
    "2 40890  56.2399 285.1910 0003504  22.8044  20.6087  1.70475155    14"
  ],
}, {
  "GALILEO209": [
    "1 41174C 15079A   20055.99979167 -.00000000  00000-0  00000-0 0   552",
    "2 41174  54.9758 164.6017 0003850 310.1753  87.5171  1.70474046    11"
  ],
  "GALILEO209": [
    "1 41174C 15079A   20054.99979167 -.00000000  00000-0  00000-0 0   540",
    "2 41174  54.9757 164.6291 0003817 310.5931 193.3749  1.70474067    19"
  ],
  "GALILEO209": [
    "1 41174C 15079A   20057.01020833 -.00000000  00000-0  00000-0 0   576",
    "2 41174  54.9759 164.5740 0003900 309.9236 347.8858  1.70474055    16"
  ],
  "GALILEO208": [
    "1 41175C 15079B   20055.99979167 -.00000000  00000-0  00000-0 0   553",
    "2 41175  54.9741 164.6013 0003019 311.6319 311.1820  1.70474146    19"
  ],
  "GALILEO208": [
    "1 41175C 15079B   20054.99979167 -.00000000  00000-0  00000-0 0   541",
    "2 41175  54.9740 164.6287 0002985 311.8889  57.2005  1.70474140    13"
  ],
  "GALILEO208": [
    "1 41175C 15079B   20057.01020833 -.00000000  00000-0  00000-0 0   577",
    "2 41175  54.9742 164.5736 0003063 311.0870 211.8447  1.70474090    15"
  ],
}, {
  "JASON3": [
    "1 41240C 16002A   20056.00000000  .00000015  00000-0  64580-4 0   560",
    "2 41240  66.0390 240.7938 0007624 273.7076 149.2716 12.80930978    19"
  ],
  "JASON3": [
    "1 41240C 16002A   20055.98611111  .00000020  00000-0  85619-4 0   558",
    "2 41240  66.0389 240.8227 0007621 273.6979  85.2410 12.80930989    19"
  ],
  "JASON3": [
    "1 41240C 16002A   20056.00000000  .00000081  00000-0  35144-3 0   566",
    "2 41240  66.0389 240.7942 0007619 273.5042 149.4753 12.80930781    12"
  ],
}, {
  "IRNSS1E": [
    "1 41241C 16003A   20055.99979167 -.00000226  00000-0  00000-0 0   555",
    "2 41241  28.9752  98.0992 0020427 186.3157 341.4961  1.00266311    19"
  ],
}];
